COMMENT,ORIGINATOR,NORAD_CAT_ID,OBJECT_NAME,OBJECT_TYPE,CLASSIFICATION_TYPE,INTLDES,EPOCH,EPOCH_MICROSECONDS,MEAN_MOTION,ECCENTRICITY,INCLINATION,RA_OF_ASC_NODE,ARG_OF_PERICENTER,MEAN_ANOMALY,EPHEMERIS_TYPE,ELEMENT_SET_NO,REV_AT_EPOCH,BSTAR,MEAN_MOTION_DOT,MEAN_MOTION_DDOT,FILE,TLE_LINE0,TLE_LINE1,TLE_LINE2,OBJECT_ID,OBJECT_NUMBER,SEMIMAJOR_AXIS,PERIOD,APOGEE,PERIGEE,DECAYED
"GENERATED VIA SPACETRACK.ORG API","18 SPCS","53903","STARLINK-5022","PAYLOAD","U","22119T","2023-01-22 11:25:17","785920","15.08851925","0.0001225","53.2186","51.399","82.0141","278.0991","0","999","1883","0.00017571","0.00002511","0","3757653","0 STARLINK-5022","1 53903U 22119T   23022.47590030  .00002511  00000-0  17571-3 0  9995","2 53903  53.2186  51.3990 0001225  82.0141 278.0991 15.08851925 18830","2022-119T","53903","6917.844","95.437","540.556","538.862","0"
"GENERATED VIA SPACETRACK.ORG API","18 SPCS","53903","STARLINK-5022","PAYLOAD","U","22119T","2023-01-23 01:43:48","26496","15.0882516","0.0000883","53.2198","48.7245","68.9751","291.1336","0","999","1892","-0.000018091","-0.00000575","0","3758313","0 STARLINK-5022","1 53903U 22119T   23023.07208364 -.00000575  00000-0 -18091-4 0  9997","2 53903  53.2198  48.7245 0000883  68.9751 291.1336 15.08825160 18926","2022-119T","53903","6917.926","95.438","540.402","539.180","0"
"GENERATED VIA SPACETRACK.ORG API","18 SPCS","53903","STARLINK-5022","PAYLOAD","U","22119T","2023-01-23 08:05:20","98752","15.08837629","0.0001383","53.2178","47.533","88.1887","271.9264","0","999","1896","-0.000032981","-0.00000813","0","3758948","0 STARLINK-5022","1 53903U 22119T   23023.33703818 -.00000813  00000-0 -32981-4 0  9999","2 53903  53.2178  47.5330 0001383  88.1887 271.9264 15.08837629 18969","2022-119T","53903","6917.888","95.438","540.709","538.796","0"
"GENERATED VIA SPACETRACK.ORG API","18 SPCS","53903","STARLINK-5022","PAYLOAD","U","22119T","2023-01-25 01:25:21","936288","15.08833652","0.0001742","53.2193","39.8028","102.9059","257.2128","0","999","1922","0.00002823","0.00000161","0","3760300","0 STARLINK-5022","1 53903U 22119T   23025.05928167  .00000161  00000-0  28230-4 0  9992","2 53903  53.2193  39.8028 0001742 102.9059 257.2128 15.08833652 19227","2022-119T","53903","6917.900","95.438","540.970","538.560","0"
"GENERATED VIA SPACETRACK.ORG API","18 SPCS","53903","STARLINK-5022","PAYLOAD","U","22119T","2023-01-25 07:46:54","192576","15.08837095","0.0001475","53.2179","38.6152","91.7087","268.4074","0","999","1968","0.000088062","0.00001114","0","3761297","0 STARLINK-5022","1 53903U 22119T   23025.32423834  .00001114  00000-0  88062-4 0  9991","2 53903  53.2179  38.6152 0001475  91.7087 268.4074 15.08837095 19684","2022-119T","53903","6917.889","95.438","540.775","538.734","0"
"GENERATED VIA SPACETRACK.ORG API","18 SPCS","53903","STARLINK-5022","PAYLOAD","U","22119T","2023-01-25 17:19:13","403424","15.08834416","0.0001421","53.2181","36.8302","90.2575","269.858","0","999","1974","0.000025585","0.00000119","0","3761360","0 STARLINK-5022","1 53903U 22119T   23025.72168291  .00000119  00000-0  25585-4 0  9993","2 53903  53.2181  36.8302 0001421  90.2575 269.8580 15.08834416 19749","2022-119T","53903","6917.897","95.438","540.745","538.779","0"
"GENERATED VIA SPACETRACK.ORG API","18 SPCS","53903","STARLINK-5022","PAYLOAD","U","22119T","2023-01-26 07:37:41","228256","15.08842103","0.0001405","53.2185","34.156","88.486","271.6293","0","999","1941","0.000067292","0.00000783","0","3761810","0 STARLINK-5022","1 53903U 22119T   23026.31783829  .00000783  00000-0  67292-4 0  9997","2 53903  53.2185  34.1560 0001405  88.4860 271.6293 15.08842103 19416","2022-119T","53903","6917.874","95.437","540.711","538.767","0"
"GENERATED VIA SPACETRACK.ORG API","18 SPCS","53903","STARLINK-5022","PAYLOAD","U","22119T","2023-01-26 07:37:41","228256","15.08842103","0.0001405","53.2185","34.156","88.486","271.6293","0","999","1983","0.000067292","0.00000783","0","3761951","0 STARLINK-5022","1 53903U 22119T   23026.31783829  .00000783  00000-0  67292-4 0  9997","2 53903  53.2185  34.1560 0001405  88.4860 271.6293 15.08842103 19832","2022-119T","53903","6917.874","95.437","540.711","538.767","0"
"GENERATED VIA SPACETRACK.ORG API","18 SPCS","53903","STARLINK-5022","PAYLOAD","U","22119T","2023-01-27 01:06:56","602944","15.08833863","0.000168","53.2204","30.8832","108.7128","251.4047","0","999","1952","-0.000047915","-0.0000105","0","3762398","0 STARLINK-5022","1 53903U 22119T   23027.04648846 -.00001050  00000-0 -47915-4 0  9997","2 53903  53.2204  30.8832 0001680 108.7128 251.4047 15.08833863 19529","2022-119T","53903","6917.899","95.438","540.926","538.602","0"
"GENERATED VIA SPACETRACK.ORG API","18 SPCS","53903","STARLINK-5022","PAYLOAD","U","22119T","2023-01-27 07:28:28","714080","15.08839313","0.0001424","53.2184","29.6931","113.2736","246.8406","0","999","1956","-0.000016125","-0.00000545","0","3762702","0 STARLINK-5022","1 53903U 22119T   23027.31144345 -.00000545  00000-0 -16125-4 0  9999","2 53903  53.2184  29.6931 0001424 113.2736 246.8406 15.08839313 19561","2022-119T","53903","6917.882","95.438","540.733","538.762","0"
"GENERATED VIA SPACETRACK.ORG API","18 SPCS","53903","STARLINK-5022","PAYLOAD","U","22119T","2023-01-27 07:28:28","714080","15.08839313","0.0001424","53.2184","29.6931","113.2736","246.8406","0","999","1998","-0.000016125","-0.00000545","0","3762956","0 STARLINK-5022","1 53903U 22119T   23027.31144345 -.00000545  00000-0 -16125-4 0  9999","2 53903  53.2184  29.6931 0001424 113.2736 246.8406 15.08839313 19987","2022-119T","53903","6917.882","95.438","540.733","538.762","0"
"GENERATED VIA SPACETRACK.ORG API","18 SPCS","53903","STARLINK-5022","PAYLOAD","U","22119T","2023-01-28 07:19:15","555360","15.08853198","0.0001599","53.2191","25.2301","117.3208","242.7947","0","999","2013","-0.00015669","-0.00002782","0","3763924","0 STARLINK-5022","1 53903U 22119T   23028.30504115 -.00002782  00000-0 -15669-3 0  9990","2 53903  53.2191  25.2301 0001599 117.3208 242.7947 15.08853198 20131","2022-119T","53903","6917.840","95.437","540.811","538.599","0"
"GENERATED VIA SPACETRACK.ORG API","18 SPCS","53903","STARLINK-5022","PAYLOAD","U","22119T","2023-01-28 07:19:15","555360","15.08853198","0.0001599","53.2191","25.2301","117.3208","242.7947","0","999","1971","-0.00015669","-0.00002782","0","3763966","0 STARLINK-5022","1 53903U 22119T   23028.30504115 -.00002782  00000-0 -15669-3 0  9990","2 53903  53.2191  25.2301 0001599 117.3208 242.7947 15.08853198 19713","2022-119T","53903","6917.840","95.437","540.811","538.599","0"
"GENERATED VIA SPACETRACK.ORG API","18 SPCS","53903","STARLINK-5022","PAYLOAD","U","22119T","2023-01-29 08:45:25","832448","15.08835467","0.0001377","53.2184","20.4718","108.7412","251.3729","0","999","1987","0.00015153","0.00002124","0","3764568","0 STARLINK-5022","1 53903U 22119T   23029.36488232  .00002124  00000-0  15153-3 0  9994","2 53903  53.2184  20.4718 0001377 108.7412 251.3729 15.08835467 19879","2022-119T","53903","6917.894","95.438","540.712","538.807","0"
"GENERATED VIA SPACETRACK.ORG API","18 SPCS","53903","STARLINK-5022","PAYLOAD","U","22119T","2023-01-29 08:45:25","832448","15.08835467","0.0001377","53.2184","20.4718","108.7412","251.3729","0","999","2029","0.00015153","0.00002124","0","3765015","0 STARLINK-5022","1 53903U 22119T   23029.36488232  .00002124  00000-0  15153-3 0  9994","2 53903  53.2184  20.4718 0001377 108.7412 251.3729 15.08835467 20297","2022-119T","53903","6917.894","95.438","540.712","538.807","0"
"GENERATED VIA SPACETRACK.ORG API","18 SPCS","53903","STARLINK-5022","PAYLOAD","U","22119T","2023-01-30 08:36:12","933792","15.08842169","0.0001353","53.2192","16.011","97.5619","262.5526","0","999","2044","0.000026361","0.00000132","0","3765576","0 STARLINK-5022","1 53903U 22119T   23030.35848303  .00000132  00000-0  26361-4 0  9995","2 53903  53.2192  16.0110 0001353  97.5619 262.5526 15.08842169 20444","2022-119T","53903","6917.874","95.437","540.675","538.803","0"
"GENERATED VIA SPACETRACK.ORG API","18 SPCS","53903","STARLINK-5022","PAYLOAD","U","22119T","2023-01-30 22:54:41","480064","15.08835322","0.0001309","53.2186","13.335","104.4388","255.6749","0","999","2053","0.000011596","-0.00000103","0","3765849","0 STARLINK-5022","1 53903U 22119T   23030.95464676 -.00000103  00000-0  11596-4 0  9991","2 53903  53.2186  13.3350 0001309 104.4388 255.6749 15.08835322 20538","2022-119T","53903","6917.895","95.438","540.665","538.854","0"
"GENERATED VIA SPACETRACK.ORG API","18 SPCS","53903","STARLINK-5022","PAYLOAD","U","22119T","2023-01-31 02:05:27","549024","15.08844988","0.0001244","53.2187","12.7432","92.9031","267.2103","0","999","2013","-0.000044237","-0.00000992","0","3765892","0 STARLINK-5022","1 53903U 22119T   23031.08712441 -.00000992  00000-0 -44237-4 0  9997","2 53903  53.2187  12.7432 0001244  92.9031 267.2103 15.08844988 20134","2022-119T","53903","6917.865","95.437","540.591","538.870","0"
"GENERATED VIA SPACETRACK.ORG API","18 SPCS","53903","STARLINK-5022","PAYLOAD","U","22119T","2023-01-31 08:26:59","620416","15.08848687","0.0001279","53.2185","11.5524","97.0951","263.0186","0","999","2059","0.00000024352","-0.00000284","0","3766475","0 STARLINK-5022","1 53903U 22119T   23031.35207894 -.00000284  00000-0  24352-6 0  9999","2 53903  53.2185  11.5524 0001279  97.0951 263.0186 15.08848687 20591","2022-119T","53903","6917.854","95.437","540.604","538.834","0"
"GENERATED VIA SPACETRACK.ORG API","18 SPCS","53903","STARLINK-5022","PAYLOAD","U","22119T","2023-02-01 03:31:37","536672","15.08842313","0.0001266","53.2177","7.9835","94.6194","265.4942","0","999","2029","-0.0000131","-0.00000496","0","3766795","0 STARLINK-5022","1 53903U 22119T   23032.14696223 -.00000496  00000-0 -13100-4 0  9998","2 53903  53.2177   7.9835 0001266  94.6194 265.4942 15.08842313 20297","2022-119T","53903","6917.873","95.437","540.614","538.863","0"
